[Satellite]
VERSION=1.1
NAME=STARLINK-5181
NICKNAME=STARLINK-5181
TLE1=1 54070U 22136V   22321.58334491  .00063462  00000+0  11176-2 0  9995
TLE2=2 54070  53.2162  10.5635 0002074  37.3977 107.3090 15.49870003  1307
STATUS=0
